#dP2023 12 18 18  0  0.00000000      96 __u+U IGS20 EXT  IAC
## 2293 151200.00000000   900.00000000 60296 0.7500000000000
+  119   C06C07C08C09C10C11C12C13C14C16C19C20C21C22C23C24C25
+        C26C27C28C29C30C32C33C34C35C36C37C38C39C40C41C42C43
+        C44C45C46E02E03E04E05E07E08E09E10E11E12E13E15E18E19
+        E21E24E25E26E27E30E31E33E34E36G01G02G03G04G05G06G07
+        G08G09G10G11G12G13G14G15G16G17G18G19G20G21G22G23G24
+        G25G26G27G28G29G30G31G32J02J03J04R01R02R03R04R05R07
+        R08R09R11R12R13R14R15R16R17R18R19R20R21R22R24R25R26
++         9 11 10 10 11  9 10  9  7 10  7  7  7  9  7  6  9
++         8  8  9  8 10  7  8  7  8  9  9 10  9 11  7  8  7
++         9  9  9  8  9  7  9  6  8  8  8  9  8  7  7  8  8
++         6  8  8  7  8  7  6  6  8  8  6  8  6  6  8  8  6
++         7  7  7  8  7  6  7  7  6  7  6  6  7  8  6  7  6
++         6  5  7  6  8  6  6  7  8  8  9  9  7  8 10 10 10
++         8  7  7  7  7  8  8  8  6  6  8 10  7  7  9  8  8
%c M  cc GPS ccc cccc cccc cccc cccc ccccc ccccc ccccc ccccc
%c cc cc ccc ccc cccc cccc cccc cccc ccccc ccccc ccccc ccccc
%f  0.0000000  0.000000000  0.00000000000  0.000000000000000
%f  0.0000000  0.000000000  0.00000000000  0.000000000000000
%i    0    0    0    0      0      0      0      0         0
%i    0    0    0    0      0      0      0      0         0
/* IAC                                ULTRA-RAPID PREDICTION
/* S/V CLOCKS ARE ALIGNED TO GNSS TIME                      
/* G:C1WC2W R:C1PC2P E:C1XC5X C:C2IC6I J:C1CC2S             
/* PCV:IGS20_2290 OL/AL:FES2004  NONE     YN ORB:CoN CLK:CoN
*  2023 12 18 19  0  0.00000000
PC06 -18460.368993  27375.556060 -26351.961780    215.000838
PC07  -7267.910711  40711.706858  -7647.880663   -495.577551
PC08   1416.635373  24668.418193  34226.555903    172.143269
PC09  -7216.934748  26347.140766 -31853.789070   -234.838785
PC10  -1207.826363  41823.719327   -874.573762    -58.500428
PC11 -20545.028104   -241.364150 -18800.598578    313.020817
PC12  -5133.297826 -15179.568886 -22800.088744    821.908237
PC13   6635.016971  27759.211543  31306.994721    397.255825
PC14 -15849.404964  -9691.107190  20850.282743   -220.966995
PC16 -20305.380457  26837.756657 -25368.803608   -233.204339
PC19  15578.979050  -1387.676979 -23089.340312   -950.355812
PC20  13988.442929  17602.187816 -16508.068032     16.990036
PC21  -3714.031591 -27657.318033   -721.074852   -967.040385
PC22   8342.092896 -20691.545233 -16779.738838   -181.609872
PC23 -15190.121730  10366.365355 -20991.522852   -801.998963
PC24 -22064.625347 -14946.825124   8204.767817    705.066215
PC25 -26107.868989  -2077.498673  -9616.376409    281.126621
PC26  -6169.099864 -17911.586287  20457.894888   -222.083463
PC27  -3216.677408  19789.458931  19400.431676    244.069776
PC28 -17997.855007  20218.847419   6792.548343    184.722822
PC29  23478.450387  -8625.371463  12372.184462    216.280595
PC30  13976.741854   8818.155288  22480.937718    -10.746169
PC32   3839.226539  27624.846193    866.215933   -544.009819
PC33 -15628.888487   1340.099433  23080.838259   -941.801701
PC34 -15217.282251  -7549.213105 -22150.724627    327.761694
PC35  17177.025794 -20892.215201  -6800.696252    477.712156
PC36  26248.778185   3281.078412   8925.006762    -87.777379
PC37   5144.800982  17993.987895 -20706.367389   -929.972666
PC38  -7374.273524  22270.029949  35100.984654    124.877189
PC39 -23801.586152  27621.820646 -21307.650302     -6.185037
PC40 -12981.748090  38522.624624 -10689.504664    -48.389043
PC41  -8768.328693  20073.904660  17336.943303   -874.146417
PC42 -13563.107420 -18953.138399  15403.541509   -478.931530
PC43 -23414.760494   7784.101134 -13060.760711     52.826144
PC44   2513.332578 -20048.067353 -19244.340265    326.812167
PC45  14765.987410 -10497.767243  21222.586830    -56.027412
PC46  22714.988185  14524.937300  -7298.720683   -108.557569
PE02 -21152.712746 -18231.359266  -9789.859363     87.705763
PE03 -14334.558740  -9334.412477  24148.595869    -80.993678
PE04  19673.035139 -12059.989803 -18535.261599   -283.099492
PE05   -734.055894 -25086.423587  15688.404967   4701.758790
PE07 -13658.069848  26146.534730   2429.359178    -93.727895
PE08 -19570.507008  11508.972971  18984.291342   -194.213607
PE09  13704.258769 -26115.193248  -2573.489412   -267.643882
PE10  24401.560519 -10772.499360 -12839.459498   -587.352228
PE11  15361.017508 -14831.308591 -20497.163470   3269.549269
PE12  28788.936542  -5489.121082  -4093.631667   -824.447400
PE13 -16078.364700  14597.346527  20126.518921    -19.710568
PE15 -28918.036298   5211.411252   3602.289657    -75.398790
PE18 -18852.055849  -4146.203756 -22005.904018    109.582914
PE19  12826.959662  11775.519004 -23936.706640   -989.212231
PE21  11607.718254  25985.150136  -8157.930352   -569.497971
PE24   5699.593681 -18622.044888  22265.218516   -493.093945
PE25 -11316.112501 -25989.140675   8506.408948     -1.785517
PE26   6732.293623  15331.588986  24420.894798    313.474764
PE27  -5189.051001  18979.411892 -22120.781876   -227.382719
PE30 -18916.054103    540.884937 -22769.313952   -752.514739
PE31  18751.860316   -851.850317  22891.777338    -11.972772
PE33  24249.309390   7441.408485  15273.389269      4.429382
PE34 -24638.655504  -7056.349874 -14797.746709    -84.078669
PE36  -5958.973038 -15300.339518 -24619.294942   -159.511210
PG01  -8798.119481 -13464.656201 -21556.478806    164.182108
PG02  -1482.203359 -14795.981481 -21500.846419   -513.702881
PG03 -10743.880461 -23278.597762  -7292.033402     64.096154
PG04  -2038.066069 -21053.324914  15989.826320    242.955310
PG05   1273.693571  20243.325317  16923.361218   -154.615238
PG06 -24857.995576   6726.704155   6797.365881    473.931642
PG07 -22760.308668  -6890.935271  12786.495098    -15.189261
PG08   3377.357569 -24618.653341  -8843.597504   -157.638790
PG09 -11319.663178 -11361.668207  21075.978254     30.849234
PG10  18201.120855   3588.966956 -18938.084065    -65.833814
PG11 -17582.399586  11953.636889  15910.717582   -505.944582
PG12   8607.501572  24033.621241  -7750.038939   -458.787193
PG13 -13276.965777  22838.405387  -1335.739167    606.981123
PG14 -19414.578668  -7075.943822 -16762.936354    274.459305
PG15   -228.572670  25082.845459  -8882.697285    108.254035
PG16   6244.336196 -16184.087454  19653.195271   -401.657146
PG17 -17000.776317   3407.377080 -19727.715635    721.789696
PG18  23549.693383   5621.603694  11145.267936   -509.676590
PG19 -18592.207665  11418.426057 -15085.636416    414.283179
PG20  -9703.319468  12070.796056  21638.059302    395.996182
PG21   2233.772525 -15316.486513 -20949.446331    141.153464
PG22 -16390.794476    190.483151 -20399.006205     63.747338
PG23  19837.198614  14607.986950 -10154.146913    118.495225
PG24   1950.329831  15897.070649 -21577.059427   -396.087484
PG25  17331.776089  20105.499886   2623.093942    481.987477
PG26  13138.164807  -8826.603306  21203.453252    208.155856
PG27  12775.822072 -22686.744159   3651.257529    -84.581672
PG28  25576.496343  -6101.865243   3699.953323    -73.591763
PG29   9416.059651  12847.816690  21191.132549   -609.654627
PG30 -26563.449639    503.494805   2834.058980   -455.944672
PG31  21859.880666  -9970.775081  11552.980280   -226.692926
PG32  17324.328561  -7608.411308 -18363.422463   -597.526377
PJ02 -21139.813530  21724.853201 -24651.989403     -0.629803
PJ03 -29184.024558  28528.672027  16078.894346    -12.515429
PJ04 -26676.055223  28394.864728  21973.565082     74.508051
PR01    818.212374 -25448.255471  -1600.349585     72.428103
PR02  -6415.782595 -19324.669210  15357.752679    -22.347133
PR03 -10780.958114  -2120.151824  23061.236725     91.163616
PR04  -8973.153545  15673.274468  18050.253816    215.893055
PR05  -2561.319852  25183.183574   3291.365505    123.993002
PR07  10790.434461   1303.047324 -23040.049081     71.629092
PR08   8853.585628 -15908.991696 -17789.480276    -73.740134
PR09  18681.461167  15339.761332  -8008.996079    159.460509
PR11  14479.249581  -2845.975838  20808.376228   -222.269314
PR12  -3571.905142 -13988.606306  21043.064586     34.610852
PR13 -17174.608638 -15868.640154  10165.534031    -42.425967
PR14 -22354.277879  -8197.386349  -9167.808529     25.788485
PR15 -13454.466827   3810.598713 -21320.702556     83.846057
PR16   3425.138038  13728.731772 -21212.621185     21.662962
PR17 -21325.918430   4494.919934 -13204.646501     44.633615
PR18 -21894.887990  12810.840416   2938.708292    117.527477
PR19 -13019.341768  14421.282789  16533.478283   -258.777116
PR20   7757.886645   7679.619093  23066.596201   -105.378057
PR21  21580.533534  -4722.045677  12784.342879    -62.004946
PR22  21870.549094 -12525.800518  -3857.597826     98.890452
PR24  -8850.339169  -7419.659950 -22717.622667    -36.455603
PR25  21630.912054  -3468.410974  13095.118745      2.626895
PR26   8962.986759 -15348.007652 -18285.691218    -23.387466
EOF
